{
  "type": "FeatureCollection",
  "features": [
    {
      "type": "Feature",
      "properties": {
        "norad_id": 34350,
        "name": "IRIDIUM 33 DEB",
        "group": "iridium-33-debris",
        "lat": -84.9130345194229,
        "lon": -128.00664674274287,
        "alt_km": 753.4970138509279,
        "timestamp": "2025-12-05T18:53:13.665621+00:00",
        "meta_object_name": "IRIDIUM 33 DEB",
        "meta_object_id": "1997-051ES",
        "meta_epoch": "2025-12-05T07:45:28.239264",
        "meta_mean_motion": 14.45361174,
        "meta_eccentricity": 0.002206,
        "meta_inclination": 86.3281,
        "meta_ra_of_asc_node": 6.0255,
        "meta_arg_of_pericenter": 158.535,
        "meta_mean_anomaly": 216.3605,
        "meta_ephemeris_type": 0,
        "meta_classification_type": "U",
        "meta_norad_cat_id": 34350,
        "meta_element_set_no": 999,
        "meta_rev_at_epoch": 88186,
        "meta_bstar": 0.00056308395,
        "meta_mean_motion_dot": 2.004e-05,
        "meta_mean_motion_ddot": 0,
        "tle_line1": "1 34350U 97051ES  25339.32324351  .00002004  00000+0  56308-3 0  9992",
        "tle_line2": "2 34350  86.3281   6.0255 0022060 158.5350 216.3605 14.45361174881860"
      },
      "geometry": {
        "type": "Point",
        "coordinates": [
          -128.00664674274287,
          -84.9130345194229
        ]
      }
    },
    {
      "type": "Feature",
      "properties": {
        "norad_id": 34366,
        "name": "IRIDIUM 33 DEB",
        "group": "iridium-33-debris",
        "lat": 18.080962335910545,
        "lon": 53.52395209412779,
        "alt_km": 725.6755292401876,
        "timestamp": "2025-12-05T18:53:13.665637+00:00",
        "meta_object_name": "IRIDIUM 33 DEB",
        "meta_object_id": "1997-051FJ",
        "meta_epoch": "2025-12-05T04:14:06.802368",
        "meta_mean_motion": 14.53950482,
        "meta_eccentricity": 0.0021906,
        "meta_inclination": 86.3706,
        "meta_ra_of_asc_node": 52.6019,
        "meta_arg_of_pericenter": 163.8251,
        "meta_mean_anomaly": 261.1241,
        "meta_ephemeris_type": 0,
        "meta_classification_type": "U",
        "meta_norad_cat_id": 34366,
        "meta_element_set_no": 999,
        "meta_rev_at_epoch": 88072,
        "meta_bstar": 0.0024311483,
        "meta_mean_motion_dot": 0.00010293,
        "meta_mean_motion_ddot": 0,
        "tle_line1": "1 34366U 97051FJ  25339.17646762  .00010293  00000+0  24311-2 0  9992",
        "tle_line2": "2 34366  86.3706  52.6019 0021906 163.8251 261.1241 14.53950482880724"
      },
      "geometry": {
        "type": "Point",
        "coordinates": [
          53.52395209412779,
          18.080962335910545
        ]
      }
    },
    {
      "type": "Feature",
      "properties": {
        "norad_id": 34375,
        "name": "IRIDIUM 33 DEB",
        "group": "iridium-33-debris",
        "lat": 66.39032086864543,
        "lon": -2.7053758220391546,
        "alt_km": 765.1479957236188,
        "timestamp": "2025-12-05T18:53:13.665653+00:00",
        "meta_object_name": "IRIDIUM 33 DEB",
        "meta_object_id": "1997-051FT",
        "meta_epoch": "2025-12-04T13:42:06.507360",
        "meta_mean_motion": 14.17970346,
        "meta_eccentricity": 0.0102617,
        "meta_inclination": 86.4331,
        "meta_ra_of_asc_node": 185.989,
        "meta_arg_of_pericenter": 152.4354,
        "meta_mean_anomaly": 237.8204,
        "meta_ephemeris_type": 0,
        "meta_classification_type": "U",
        "meta_norad_cat_id": 34375,
        "meta_element_set_no": 999,
        "meta_rev_at_epoch": 86596,
        "meta_bstar": 0.0006989,
        "meta_mean_motion_dot": 1.525e-05,
        "meta_mean_motion_ddot": 0,
        "tle_line1": "1 34375U 97051FT  25338.57090865  .00001525  00000+0  69890-3 0  9992",
        "tle_line2": "2 34375  86.4331 185.9890 0102617 152.4354 237.8204 14.17970346865962"
      },
      "geometry": {
        "type": "Point",
        "coordinates": [
          -2.7053758220391546,
          66.39032086864543
        ]
      }
    },
    {
      "type": "Feature",
      "properties": {
        "norad_id": 34376,
        "name": "IRIDIUM 33 DEB",
        "group": "iridium-33-debris",
        "lat": 84.83157713254307,
        "lon": 143.96684351371334,
        "alt_km": 680.0542842905879,
        "timestamp": "2025-12-05T18:53:13.665669+00:00",
        "meta_object_name": "IRIDIUM 33 DEB",
        "meta_object_id": "1997-051FU",
        "meta_epoch": "2025-12-05T02:02:13.782336",
        "meta_mean_motion": 14.62400961,
        "meta_eccentricity": 0.002628,
        "meta_inclination": 86.2986,
        "meta_ra_of_asc_node": 9.9814,
        "meta_arg_of_pericenter": 192.764,
        "meta_mean_anomaly": 167.2909,
        "meta_ephemeris_type": 0,
        "meta_classification_type": "U",
        "meta_norad_cat_id": 34376,
        "meta_element_set_no": 999,
        "meta_rev_at_epoch": 87895,
        "meta_bstar": 0.0031192518,
        "meta_mean_motion_dot": 0.00015894,
        "meta_mean_motion_ddot": 0,
        "tle_line1": "1 34376U 97051FU  25339.08488174  .00015894  00000+0  31193-2 0  9992",
        "tle_line2": "2 34376  86.2986   9.9814 0026280 192.7640 167.2909 14.62400961878956"
      },
      "geometry": {
        "type": "Point",
        "coordinates": [
          143.96684351371334,
          84.83157713254307
        ]
      }
    },
    {
      "type": "Feature",
      "properties": {
        "norad_id": 34486,
        "name": "IRIDIUM 33 DEB",
        "group": "iridium-33-debris",
        "lat": -24.358608495521857,
        "lon": -163.13054321271517,
        "alt_km": 583.6931701135927,
        "timestamp": "2025-12-05T18:53:13.665684+00:00",
        "meta_object_name": "IRIDIUM 33 DEB",
        "meta_object_id": "1997-051GB",
        "meta_epoch": "2025-12-05T02:10:05.865888",
        "meta_mean_motion": 14.95275155,
        "meta_eccentricity": 0.00131555,
        "meta_inclination": 86.3935,
        "meta_ra_of_asc_node": 15.5543,
        "meta_arg_of_pericenter": 137.9158,
        "meta_mean_anomaly": 278.7731,
        "meta_ephemeris_type": 0,
        "meta_classification_type": "U",
        "meta_norad_cat_id": 34486,
        "meta_element_set_no": 999,
        "meta_rev_at_epoch": 88872,
        "meta_bstar": 0.0041966541,
        "meta_mean_motion_dot": 0.00046542,
        "meta_mean_motion_ddot": 0,
        "tle_line1": "1 34486U 97051GB  25339.09034567  .00046542  00000+0  41967-2 0  9992",
        "tle_line2": "2 34486  86.3935  15.5543 0013155 137.9158 278.7731 14.95275155888725"
      },
      "geometry": {
        "type": "Point",
        "coordinates": [
          -163.13054321271517,
          -24.358608495521857
        ]
      }
    },
    {
      "type": "Feature",
      "properties": {
        "norad_id": 34487,
        "name": "IRIDIUM 33 DEB",
        "group": "iridium-33-debris",
        "lat": 85.52850368620477,
        "lon": 70.21411225563013,
        "alt_km": 729.97712042074,
        "timestamp": "2025-12-05T18:53:13.665700+00:00",
        "meta_object_name": "IRIDIUM 33 DEB",
        "meta_object_id": "1997-051GC",
        "meta_epoch": "2025-12-05T03:47:55.823136",
        "meta_mean_motion": 14.43201704,
        "meta_eccentricity": 0.00320969,
        "meta_inclination": 86.3441,
        "meta_ra_of_asc_node": 15.6412,
        "meta_arg_of_pericenter": 152.3675,
        "meta_mean_anomaly": 271.1531,
        "meta_ephemeris_type": 0,
        "meta_classification_type": "U",
        "meta_norad_cat_id": 34487,
        "meta_element_set_no": 999,
        "meta_rev_at_epoch": 88139,
        "meta_bstar": 0.00037326902,
        "meta_mean_motion_dot": 1.282e-05,
        "meta_mean_motion_ddot": 0,
        "tle_line1": "1 34487U 97051GC  25339.15828499  .00001282  00000+0  37327-3 0  9993",
        "tle_line2": "2 34487  86.3441  15.6412 0032096 152.3675 271.1531 14.43201704881397"
      },
      "geometry": {
        "type": "Point",
        "coordinates": [
          70.21411225563013,
          85.52850368620477
        ]
      }
    },
    {
      "type": "Feature",
      "properties": {
        "norad_id": 34488,
        "name": "IRIDIUM 33 DEB",
        "group": "iridium-33-debris",
        "lat": 85.38734944955398,
        "lon": 76.43512632696232,
        "alt_km": 468.372447332772,
        "timestamp": "2025-12-05T18:53:13.665715+00:00",
        "meta_object_name": "IRIDIUM 33 DEB",
        "meta_object_id": "1997-051GD",
        "meta_epoch": "2025-12-05T02:45:16.295616",
        "meta_mean_motion": 15.26768801,
        "meta_eccentricity": 0.00152686,
        "meta_inclination": 86.3248,
        "meta_ra_of_asc_node": 309.5823,
        "meta_arg_of_pericenter": 62.928,
        "meta_mean_anomaly": 297.3523,
        "meta_ephemeris_type": 0,
        "meta_classification_type": "U",
        "meta_norad_cat_id": 34488,
        "meta_element_set_no": 999,
        "meta_rev_at_epoch": 89123,
        "meta_bstar": 0.0076636446,
        "meta_mean_motion_dot": 0.00207511,
        "meta_mean_motion_ddot": 0,
        "tle_line1": "1 34488U 97051GD  25339.11477194  .00207511  00000+0  76636-2 0  9990",
        "tle_line2": "2 34488  86.3248 309.5823 0015268  62.9280 297.3523 15.26768801891237"
      },
      "geometry": {
        "type": "Point",
        "coordinates": [
          76.43512632696232,
          85.38734944955398
        ]
      }
    }
  ]
}